[{"OBJECT_NAME":"THEA","OBJECT_ID":"2018-099AQ","EPOCH":"2026-03-09T22:33:02.658240","MEAN_MOTION":15.31454284,"ECCENTRICITY":0.00065849,"INCLINATION":97.4542,"RA_OF_ASC_NODE":137.8815,"ARG_OF_PERICENTER":275.4664,"MEAN_ANOMALY":84.5826,"EPHEMERIS_TYPE":0,"CLASSIFICATION_TYPE":"U","NORAD_CAT_ID":43796,"ELEMENT_SET_NO":999,"REV_AT_EPOCH":39748,"BSTAR":0.00074635274,"MEAN_MOTION_DOT":0.00022649,"MEAN_MOTION_DDOT":0},{"OBJECT_NAME":"STARLINK-31051","OBJECT_ID":"2024-002Q","EPOCH":"2026-03-09T16:24:40.663872","MEAN_MOTION":15.30202741,"ECCENTRICITY":0.0001004,"INCLINATION":53.1603,"RA_OF_ASC_NODE":230.0143,"ARG_OF_PERICENTER":85.212,"MEAN_ANOMALY":274.8996,"EPHEMERIS_TYPE":0,"CLASSIFICATION_TYPE":"U","NORAD_CAT_ID":58719,"ELEMENT_SET_NO":999,"REV_AT_EPOCH":12201,"BSTAR":-4.5609465e-5,"MEAN_MOTION_DOT":-1.71e-5,"MEAN_MOTION_DDOT":0}]
